{
  "type": "FeatureCollection",
  "features": [
    {
      "type": "Feature",
      "properties": {
        "norad_id": 34765,
        "name": "IRIDIUM 33 DEB",
        "group": "iridium-33-debris",
        "lat": 6.349957577776328,
        "lon": 34.47157180500816,
        "alt_km": 767.9477046075353,
        "timestamp": "2025-12-09T16:56:36.959427+00:00",
        "meta_object_name": "IRIDIUM 33 DEB",
        "meta_object_id": "1997-051LJ",
        "meta_epoch": "2025-12-09T10:18:46.721088",
        "meta_mean_motion": 14.40452854,
        "meta_eccentricity": 0.0015105,
        "meta_inclination": 86.3396,
        "meta_ra_of_asc_node": 34.1819,
        "meta_arg_of_pericenter": 223.0287,
        "meta_mean_anomaly": 151.5959,
        "meta_ephemeris_type": 0,
        "meta_classification_type": "U",
        "meta_norad_cat_id": 34765,
        "meta_element_set_no": 999,
        "meta_rev_at_epoch": 87566,
        "meta_bstar": 0.00070906,
        "meta_mean_motion_dot": 2.275e-05,
        "meta_mean_motion_ddot": 0,
        "tle_line1": "1 34765U 97051LJ  25343.42970742  .00002275  00000+0  70906-3 0  9999",
        "tle_line2": "2 34765  86.3396  34.1819 0015105 223.0287 151.5959 14.40452854875668"
      },
      "geometry": {
        "type": "Point",
        "coordinates": [
          34.47157180500816,
          6.349957577776328
        ]
      }
    },
    {
      "type": "Feature",
      "properties": {
        "norad_id": 34833,
        "name": "IRIDIUM 33 DEB",
        "group": "iridium-33-debris",
        "lat": -18.204242488214014,
        "lon": 51.1128304001584,
        "alt_km": 732.1339460759518,
        "timestamp": "2025-12-09T16:56:36.959437+00:00",
        "meta_object_name": "IRIDIUM 33 DEB",
        "meta_object_id": "1997-051MH",
        "meta_epoch": "2025-12-09T05:43:51.843072",
        "meta_mean_motion": 14.52344467,
        "meta_eccentricity": 0.0021797,
        "meta_inclination": 86.3929,
        "meta_ra_of_asc_node": 52.5028,
        "meta_arg_of_pericenter": 109.2817,
        "meta_mean_anomaly": 311.6946,
        "meta_ephemeris_type": 0,
        "meta_classification_type": "U",
        "meta_norad_cat_id": 34833,
        "meta_element_set_no": 999,
        "meta_rev_at_epoch": 87664,
        "meta_bstar": 0.0011811,
        "meta_mean_motion_dot": 4.84e-05,
        "meta_mean_motion_ddot": 0,
        "tle_line1": "1 34833U 97051MH  25343.23879448  .00004840  00000+0  11811-2 0  9994",
        "tle_line2": "2 34833  86.3929  52.5028 0021797 109.2817 311.6946 14.52344467876647"
      },
      "geometry": {
        "type": "Point",
        "coordinates": [
          51.1128304001584,
          -18.204242488214014
        ]
      }
    },
    {
      "type": "Feature",
      "properties": {
        "norad_id": 34870,
        "name": "IRIDIUM 33 DEB",
        "group": "iridium-33-debris",
        "lat": 51.88269114594726,
        "lon": -39.80901938982909,
        "alt_km": 644.8609188589608,
        "timestamp": "2025-12-09T16:56:36.959447+00:00",
        "meta_object_name": "IRIDIUM 33 DEB",
        "meta_object_id": "1997-051MQ",
        "meta_epoch": "2025-12-07T16:41:29.147136",
        "meta_mean_motion": 14.76272854,
        "meta_eccentricity": 0.00154972,
        "meta_inclination": 86.3098,
        "meta_ra_of_asc_node": 316.3932,
        "meta_arg_of_pericenter": 201.8058,
        "meta_mean_anomaly": 332.1989,
        "meta_ephemeris_type": 0,
        "meta_classification_type": "U",
        "meta_norad_cat_id": 34870,
        "meta_element_set_no": 999,
        "meta_rev_at_epoch": 88836,
        "meta_bstar": 0.0021061979,
        "meta_mean_motion_dot": 0.00014658,
        "meta_mean_motion_ddot": 0,
        "tle_line1": "1 34870U 97051MQ  25341.69547624  .00014658  00000+0  21062-2 0  9998",
        "tle_line2": "2 34870  86.3098 316.3932 0015497 201.8058 332.1989 14.76272854888369"
      },
      "geometry": {
        "type": "Point",
        "coordinates": [
          -39.80901938982909,
          51.88269114594726
        ]
      }
    },
    {
      "type": "Feature",
      "properties": {
        "norad_id": 34896,
        "name": "IRIDIUM 33 DEB",
        "group": "iridium-33-debris",
        "lat": 3.832459469991622,
        "lon": -31.70790374083997,
        "alt_km": 688.3209166518727,
        "timestamp": "2025-12-09T16:56:36.959458+00:00",
        "meta_object_name": "IRIDIUM 33 DEB",
        "meta_object_id": "1997-051MY",
        "meta_epoch": "2025-12-09T05:43:17.078304",
        "meta_mean_motion": 14.66220489,
        "meta_eccentricity": 0.0024034,
        "meta_inclination": 86.3293,
        "meta_ra_of_asc_node": 328.2553,
        "meta_arg_of_pericenter": 227.4371,
        "meta_mean_anomaly": 189.808,
        "meta_ephemeris_type": 0,
        "meta_classification_type": "U",
        "meta_norad_cat_id": 34896,
        "meta_element_set_no": 999,
        "meta_rev_at_epoch": 87568,
        "meta_bstar": 0.0013765,
        "meta_mean_motion_dot": 7.633e-05,
        "meta_mean_motion_ddot": 0,
        "tle_line1": "1 34896U 97051MY  25343.23839211  .00007633  00000+0  13765-2 0  9990",
        "tle_line2": "2 34896  86.3293 328.2553 0024034 227.4371 189.8080 14.66220489875680"
      },
      "geometry": {
        "type": "Point",
        "coordinates": [
          -31.70790374083997,
          3.832459469991622
        ]
      }
    },
    {
      "type": "Feature",
      "properties": {
        "norad_id": 34926,
        "name": "IRIDIUM 33 DEB",
        "group": "iridium-33-debris",
        "lat": -39.75077516140189,
        "lon": -167.09473301059668,
        "alt_km": 712.0883383292548,
        "timestamp": "2025-12-09T16:56:36.959468+00:00",
        "meta_object_name": "IRIDIUM 33 DEB",
        "meta_object_id": "1997-051NF",
        "meta_epoch": "2025-12-09T03:00:38.009952",
        "meta_mean_motion": 14.54144924,
        "meta_eccentricity": 0.00760026,
        "meta_inclination": 86.1319,
        "meta_ra_of_asc_node": 9.9484,
        "meta_arg_of_pericenter": 305.1684,
        "meta_mean_anomaly": 118.2748,
        "meta_ephemeris_type": 0,
        "meta_classification_type": "U",
        "meta_norad_cat_id": 34926,
        "meta_element_set_no": 999,
        "meta_rev_at_epoch": 86404,
        "meta_bstar": 0.0063092717,
        "meta_mean_motion_dot": 0.00027819,
        "meta_mean_motion_ddot": 0,
        "tle_line1": "1 34926U 97051NF  25343.12543993  .00027819  00000+0  63093-2 0  9998",
        "tle_line2": "2 34926  86.1319   9.9484 0076002 305.1684 118.2748 14.54144924864041"
      },
      "geometry": {
        "type": "Point",
        "coordinates": [
          -167.09473301059668,
          -39.75077516140189
        ]
      }
    },
    {
      "type": "Feature",
      "properties": {
        "norad_id": 34985,
        "name": "IRIDIUM 33 DEB",
        "group": "iridium-33-debris",
        "lat": 60.1279753094654,
        "lon": -128.17346437113918,
        "alt_km": 751.2656789306247,
        "timestamp": "2025-12-09T16:56:36.959478+00:00",
        "meta_object_name": "IRIDIUM 33 DEB",
        "meta_object_id": "1997-051NR",
        "meta_epoch": "2025-12-09T11:29:05.214912",
        "meta_mean_motion": 14.41988127,
        "meta_eccentricity": 0.0020389,
        "meta_inclination": 86.3692,
        "meta_ra_of_asc_node": 58.2704,
        "meta_arg_of_pericenter": 230.9177,
        "meta_mean_anomaly": 148.9358,
        "meta_ephemeris_type": 0,
        "meta_classification_type": "U",
        "meta_norad_cat_id": 34985,
        "meta_element_set_no": 999,
        "meta_rev_at_epoch": 87128,
        "meta_bstar": 0.0011382,
        "meta_mean_motion_dot": 3.759e-05,
        "meta_mean_motion_ddot": 0,
        "tle_line1": "1 34985U 97051NR  25343.47853258  .00003759  00000+0  11382-2 0  9990",
        "tle_line2": "2 34985  86.3692  58.2704 0020389 230.9177 148.9358 14.41988127871281"
      },
      "geometry": {
        "type": "Point",
        "coordinates": [
          -128.17346437113918,
          60.1279753094654
        ]
      }
    },
    {
      "type": "Feature",
      "properties": {
        "norad_id": 35051,
        "name": "IRIDIUM 33 DEB",
        "group": "iridium-33-debris",
        "lat": -8.577674616691617,
        "lon": 9.628355982159187,
        "alt_km": 739.9774947477235,
        "timestamp": "2025-12-09T16:56:36.959488+00:00",
        "meta_object_name": "IRIDIUM 33 DEB",
        "meta_object_id": "1997-051NX",
        "meta_epoch": "2025-12-09T08:41:17.541312",
        "meta_mean_motion": 14.47575275,
        "meta_eccentricity": 0.0010657,
        "meta_inclination": 86.3242,
        "meta_ra_of_asc_node": 10.3338,
        "meta_arg_of_pericenter": 100.3191,
        "meta_mean_anomaly": 259.9214,
        "meta_ephemeris_type": 0,
        "meta_classification_type": "U",
        "meta_norad_cat_id": 35051,
        "meta_element_set_no": 999,
        "meta_rev_at_epoch": 86947,
        "meta_bstar": 0.0010277,
        "meta_mean_motion_dot": 3.803e-05,
        "meta_mean_motion_ddot": 0,
        "tle_line1": "1 35051U 97051NX  25343.36200858  .00003803  00000+0  10277-2 0  9997",
        "tle_line2": "2 35051  86.3242  10.3338 0010657 100.3191 259.9214 14.47575275869476"
      },
      "geometry": {
        "type": "Point",
        "coordinates": [
          9.628355982159187,
          -8.577674616691617
        ]
      }
    }
  ]
}